{
    "links": {
        "self": "http://www.neowsapp.com/rest/v1/neo/3392369?api_key=iIulBulltgU6a56xZRHN4H3l9WmuAYTsLGpBGhQ2"
    },
    "id": "3392369",
    "neo_reference_id": "3392369",
    "name": "(2007 VX6)",
    "designation": "2007 VX6",
    "nasa_jpl_url": "http://ssd.jpl.nasa.gov/sbdb.cgi?sstr=3392369",
    "absolute_magnitude_h": 20.9,
    "estimated_diameter": {
        "kilometers": {
            "estimated_diameter_min": 0.1756123185,
            "estimated_diameter_max": 0.3926810818
        },
        "meters": {
            "estimated_diameter_min": 175.6123184804,
            "estimated_diameter_max": 392.6810818086
        },
        "miles": {
            "estimated_diameter_min": 0.1091204019,
            "estimated_diameter_max": 0.2440006365
        },
        "feet": {
            "estimated_diameter_min": 576.1559189633,
            "estimated_diameter_max": 1288.3238004408
        }
    },
    "is_potentially_hazardous_asteroid": false,
    "close_approach_data": [
        {
            "close_approach_date": "2007-11-05",
            "close_approach_date_full": "2007-Nov-05 04:37",
            "epoch_date_close_approach": 1194237420000,
            "relative_velocity": {
                "kilometers_per_second": "23.2835887042",
                "kilometers_per_hour": "83820.9193350725",
                "miles_per_hour": "52083.0595723955"
            },
            "miss_distance": {
                "astronomical": "0.2362559122",
                "lunar": "91.9035498458",
                "kilometers": "35343381.240027014",
                "miles": "21961358.7408162332"
            },
            "orbiting_body": "Earth"
        }
    ],
    "orbital_data": {
        "orbit_id": "8",
        "orbit_determination_date": "2017-04-06 09:05:23",
        "first_observation_date": "2007-11-03",
        "last_observation_date": "2007-11-19",
        "data_arc_in_days": 16,
        "observations_used": 30,
        "orbit_uncertainty": "8",
        "minimum_orbit_intersection": ".0781519",
        "jupiter_tisserand_invariant": "3.085",
        "epoch_osculation": "2454410.5",
        "eccentricity": ".6133442199072181",
        "semi_major_axis": "2.262852464808209",
        "inclination": "41.09103345215321",
        "ascending_node_longitude": "233.8318405569804",
        "orbital_period": "1243.319617060985",
        "perihelion_distance": ".8749449850152923",
        "perihelion_argument": "119.7911868164567",
        "aphelion_distance": "3.650759944601126",
        "perihelion_time": "2454363.456505606277",
        "mean_anomaly": "13.62132290792094",
        "mean_motion": ".2895474301700349",
        "equinox": "J2000",
        "orbit_class": {
            "orbit_class_type": "APO",
            "orbit_class_description": "Near-Earth asteroid orbits which cross the Earth’s orbit similar to that of 1862 Apollo",
            "orbit_class_range": "a (semi-major axis) > 1.0 AU; q (perihelion) < 1.017 AU"
        }
    },
    "is_sentry_object": false
}